{"type": "FeatureCollection", "features": [ {"type": "Feature", "properties": {"norad_id": 33153, "name": "INTELSAT 25 (IS-25)", "group": "intelsat", "lat": -0.31135914141776566, "lon": -89.78491066736908, "alt_km": 35763.71694953388, "timestamp": "2025-12-09T14:52:25.833645+00:00", "meta": {"OBJECT_NAME": "INTELSAT 25 (IS-25)", "OBJECT_ID": "2008-034A", "EPOCH": "2025-12-09T04:51:44.145792", "MEAN_MOTION": 1.00270345, "ECCENTRICITY": 0.00054049, "INCLINATION": 2.2187, "RA_OF_ASC_NODE": 82.6859, "ARG_OF_PERICENTER": 184.3972, "MEAN_ANOMALY": 212.5515, "EPHEMERIS_TYPE": 0, "CLASSIFICATION_TYPE": "U", "NORAD_CAT_ID": 33153, "ELEMENT_SET_NO": 999, "REV_AT_EPOCH": 6379, "BSTAR": 0, "MEAN_MOTION_DOT": -2.22e-06, "MEAN_MOTION_DDOT": 0}, "tle": {"line1": "1 33153U 08034A   25343.20259428 -.00000222  00000+0  00000+0 0  9994", "line2": "2 33153   2.2187  82.6859 0005404 184.3972 212.5515  1.00270345 63790"}}, "geometry": {"type": "Point", "coordinates": [-89.78491066736908, -0.31135914141776566]}}, {"type": "Feature", "properties": {"norad_id": 33376, "name": "GALAXY 19 (G-19)", "group": "intelsat", "lat": -0.031443315799692936, "lon": -155.3323521587991, "alt_km": 35781.09746765872, "timestamp": "2025-12-09T14:52:25.833657+00:00", "meta": {"OBJECT_NAME": "GALAXY 19 (G-19)", "OBJECT_ID": "2008-045A", "EPOCH": "2025-12-09T06:01:36.395616", "MEAN_MOTION": 1.00269833, "ECCENTRICITY": 0.00033711, "INCLINATION": 0.0185, "RA_OF_ASC_NODE": 313.5393, "ARG_OF_PERICENTER": 318.3552, "MEAN_ANOMALY": 159.7455, "EPHEMERIS_TYPE": 0, "CLASSIFICATION_TYPE": "U", "NORAD_CAT_ID": 33376, "ELEMENT_SET_NO": 999, "REV_AT_EPOCH": 6299, "BSTAR": 0, "MEAN_MOTION_DOT": -1.37e-06, "MEAN_MOTION_DDOT": 0}, "tle": {"line1": "1 33376U 08045A   25343.25111569 -.00000137  00000+0  00000+0 0  9996", "line2": "2 33376   0.0185 313.5393 0003371 318.3552 159.7455  1.00269833 62990"}}, "geometry": {"type": "Point", "coordinates": [-155.3323521587991, -0.031443315799692936]}}, {"type": "Feature", "properties": {"norad_id": 35493, "name": "FM-5", "group": "intelsat", "lat": -0.031043329982554917, "lon": -144.42054308299896, "alt_km": 35783.53686791572, "timestamp": "2025-12-09T14:52:25.833670+00:00", "meta": {"OBJECT_NAME": "FM-5", "OBJECT_ID": "2009-034A", "EPOCH": "2025-12-08T23:27:59.811840", "MEAN_MOTION": 1.0027183, "ECCENTRICITY": 7.686e-05, "INCLINATION": 0.0205, "RA_OF_ASC_NODE": 287.8987, "ARG_OF_PERICENTER": 250.7085, "MEAN_ANOMALY": 165.2291, "EPHEMERIS_TYPE": 0, "CLASSIFICATION_TYPE": "U", "NORAD_CAT_ID": 35493, "ELEMENT_SET_NO": 999, "REV_AT_EPOCH": 4473, "BSTAR": 0, "MEAN_MOTION_DOT": -1.98e-06, "MEAN_MOTION_DDOT": 0}, "tle": {"line1": "1 35493U 09034A   25342.97777560 -.00000198  00000+0  00000+0 0  9991", "line2": "2 35493   0.0205 287.8987 0000768 250.7085 165.2291  1.00271830 44736"}}, "geometry": {"type": "Point", "coordinates": [-144.42054308299896, -0.031043329982554917]}}, {"type": "Feature", "properties": {"norad_id": 36097, "name": "INTELSAT 14 (IS-14)", "group": "intelsat", "lat": -0.03014771220006027, "lon": -103.2868665885347, "alt_km": 35775.28909681122, "timestamp": "2025-12-09T14:52:25.833682+00:00", "meta": {"OBJECT_NAME": "INTELSAT 14 (IS-14)", "OBJECT_ID": "2009-064A", "EPOCH": "2025-12-09T04:47:52.015776", "MEAN_MOTION": 1.00270444, "ECCENTRICITY": 0.00026804, "INCLINATION": 0.0099, "RA_OF_ASC_NODE": 342.2991, "ARG_OF_PERICENTER": 283.0888, "MEAN_ANOMALY": 199.7806, "EPHEMERIS_TYPE": 0, "CLASSIFICATION_TYPE": "U", "NORAD_CAT_ID": 36097, "ELEMENT_SET_NO": 999, "REV_AT_EPOCH": 5870, "BSTAR": 0, "MEAN_MOTION_DOT": -2.71e-06, "MEAN_MOTION_DDOT": 0}, "tle": {"line1": "1 36097U 09064A   25343.19990759 -.00000271  00000+0  00000+0 0  9999", "line2": "2 36097   0.0099 342.2991 0002680 283.0888 199.7806  1.00270444 58700"}}, "geometry": {"type": "Point", "coordinates": [-103.2868665885347, -0.03014771220006027]}}, {"type": "Feature", "properties": {"norad_id": 36106, "name": "INTELSAT 15 (IS-15)", "group": "intelsat", "lat": 0.03904965826725274, "lon": 26.892564102872026, "alt_km": 35790.98368371708, "timestamp": "2025-12-09T14:52:25.833694+00:00", "meta": {"OBJECT_NAME": "INTELSAT 15 (IS-15)", "OBJECT_ID": "2009-067A", "EPOCH": "2025-12-09T02:24:38.647584", "MEAN_MOTION": 1.00273106, "ECCENTRICITY": 0.00025715, "INCLINATION": 0.0293, "RA_OF_ASC_NODE": 285.0945, "ARG_OF_PERICENTER": 343.0358, "MEAN_ANOMALY": 291.2788, "EPHEMERIS_TYPE": 0, "CLASSIFICATION_TYPE": "U", "NORAD_CAT_ID": 36106, "ELEMENT_SET_NO": 999, "REV_AT_EPOCH": 3932, "BSTAR": 0, "MEAN_MOTION_DOT": -1.83e-06, "MEAN_MOTION_DDOT": 0}, "tle": {"line1": "1 36106U 09067A   25343.10044731 -.00000183  00000+0  00000+0 0  9996", "line2": "2 36106   0.0293 285.0945 0002571 343.0358 291.2788  1.00273106 39320"}}, "geometry": {"type": "Point", "coordinates": [26.892564102872026, 0.03904965826725274]}}, {"type": "Feature", "properties": {"norad_id": 36131, "name": "DIRECTV 12", "group": "intelsat", "lat": 0.0191941361624096, "lon": -161.01676072854696, "alt_km": 35787.81419671952, "timestamp": "2025-12-09T14:52:25.833707+00:00", "meta": {"OBJECT_NAME": "DIRECTV 12", "OBJECT_ID": "2009-075A", "EPOCH": "2025-12-08T21:40:32.604096", "MEAN_MOTION": 1.00270047, "ECCENTRICITY": 3.55e-05, "INCLINATION": 0.0409, "RA_OF_ASC_NODE": 138.4209, "ARG_OF_PERICENTER": 206.7884, "MEAN_ANOMALY": 315.1057, "EPHEMERIS_TYPE": 0, "CLASSIFICATION_TYPE": "U", "NORAD_CAT_ID": 36131, "ELEMENT_SET_NO": 999, "REV_AT_EPOCH": 4464, "BSTAR": 0, "MEAN_MOTION_DOT": -1.01e-06, "MEAN_MOTION_DDOT": 0}, "tle": {"line1": "1 36131U 09075A   25342.90315514 -.00000101  00000+0  00000+0 0  9990", "line2": "2 36131   0.0409 138.4209 0000355 206.7884 315.1057  1.00270047 44645"}}, "geometry": {"type": "Point", "coordinates": [-161.01676072854696, 0.0191941361624096]}}, {"type": "Feature", "properties": {"norad_id": 36397, "name": "INTELSAT 16 (IS-16)", "group": "intelsat", "lat": -0.031955088920650694, "lon": -134.50545871654296, "alt_km": 35778.767961733836, "timestamp": "2025-12-09T14:52:25.833719+00:00", "meta": {"OBJECT_NAME": "INTELSAT 16 (IS-16)", "OBJECT_ID": "2010-006A", "EPOCH": "2025-12-09T07:14:46.873824", "MEAN_MOTION": 1.00270317, "ECCENTRICITY": 0.00022938, "INCLINATION": 0.0155, "RA_OF_ASC_NODE": 308.6311, "ARG_OF_PERICENTER": 313.8295, "MEAN_ANOMALY": 208.3293, "EPHEMERIS_TYPE": 0, "CLASSIFICATION_TYPE": "U", "NORAD_CAT_ID": 36397, "ELEMENT_SET_NO": 999, "REV_AT_EPOCH": 5775, "BSTAR": 0, "MEAN_MOTION_DOT": -2.42e-06, "MEAN_MOTION_DDOT": 0}, "tle": {"line1": "1 36397U 10006A   25343.30193141 -.00000242  00000+0  00000+0 0  9991", "line2": "2 36397   0.0155 308.6311 0002293 313.8295 208.3293  1.00270317 57752"}}, "geometry": {"type": "Point", "coordinates": [-134.50545871654296, -0.031955088920650694]}}, {"type": "Feature", "properties": {"norad_id": 37185, "name": "XM-5", "group": "intelsat", "lat": -0.06839134242179427, "lon": -173.4714222281293, "alt_km": 35780.306877027724, "timestamp": "2025-12-09T14:52:25.833735+00:00", "meta": {"OBJECT_NAME": "XM-5", "OBJECT_ID": "2010-053A", "EPOCH": "2025-12-09T01:02:28.261824", "MEAN_MOTION": 1.00269679, "ECCENTRICITY": 0.00017498, "INCLINATION": 0.0636, "RA_OF_ASC_NODE": 272.6513, "ARG_OF_PERICENTER": 243.8809, "MEAN_ANOMALY": 181.936, "EPHEMERIS_TYPE": 0, "CLASSIFICATION_TYPE": "U", "NORAD_CAT_ID": 37185, "ELEMENT_SET_NO": 999, "REV_AT_EPOCH": 5557, "BSTAR": 0, "MEAN_MOTION_DOT": -2.1e-07, "MEAN_MOTION_DDOT": 0}, "tle": {"line1": "1 37185U 10053A   25343.04338266 -.00000021  00000+0  00000+0 0  9994", "line2": "2 37185   0.0636 272.6513 0001749 243.8809 181.9360  1.00269679 55572"}}, "geometry": {"type": "Point", "coordinates": [-173.4714222281293, -0.06839134242179427]}}, {"type": "Feature", "properties": {"norad_id": 37238, "name": "INTELSAT 17 (IS-17)", "group": "intelsat", "lat": 0.021499847393065485, "lon": 7.754470776304936, "alt_km": 35788.627727652456, "timestamp": "2025-12-09T14:52:25.833748+00:00", "meta": {"OBJECT_NAME": "INTELSAT 17 (IS-17)", "OBJECT_ID": "2010-065B", "EPOCH": "2025-12-09T03:36:51.318144", "MEAN_MOTION": 1.00273452, "ECCENTRICITY": 0.00024896, "INCLINATION": 0.0157, "RA_OF_ASC_NODE": 282.9956, "ARG_OF_PERICENTER": 338.0088, "MEAN_ANOMALY": 297.3668, "EPHEMERIS_TYPE": 0, "CLASSIFICATION_TYPE": "U", "NORAD_CAT_ID": 37238, "ELEMENT_SET_NO": 999, "REV_AT_EPOCH": 5134, "BSTAR": 0, "MEAN_MOTION_DOT": 0, "MEAN_MOTION_DDOT": 0}, "tle": {"line1": "1 37238U 10065B   25343.15059396  .00000000  00000+0  00000+0 0  9998", "line2": "2 37238   0.0157 282.9956 0002489 338.0088 297.3668  1.00273452 51340"}}, "geometry": {"type": "Point", "coordinates": [7.754470776304936, 0.021499847393065485]}}, {"type": "Feature", "properties": {"norad_id": 37392, "name": "INTELSAT 28 (IS-28)", "group": "intelsat", "lat": -0.1331080172459536, "lon": -89.98219244103012, "alt_km": 35769.19251483566, "timestamp": "2025-12-09T14:52:25.833760+00:00", "meta": {"OBJECT_NAME": "INTELSAT 28 (IS-28)", "OBJECT_ID": "2011-016A", "EPOCH": "2025-12-09T04:51:44.145792", "MEAN_MOTION": 1.00272248, "ECCENTRICITY": 0.00039973, "INCLINATION": 1.3155, "RA_OF_ASC_NODE": 85.0973, "ARG_OF_PERICENTER": 178.3295, "MEAN_ANOMALY": 216.0028, "EPHEMERIS_TYPE": 0, "CLASSIFICATION_TYPE": "U", "NORAD_CAT_ID": 37392, "ELEMENT_SET_NO": 999, "REV_AT_EPOCH": 5138, "BSTAR": 0, "MEAN_MOTION_DOT": -2.23e-06, "MEAN_MOTION_DDOT": 0}, "tle": {"line1": "1 37392U 11016A   25343.20259428 -.00000223  00000+0  00000+0 0  9998", "line2": "2 37392   1.3155  85.0973 0003997 178.3295 216.0028  1.00272248 51388"}}, "geometry": {"type": "Point", "coordinates": [-89.98219244103012, -0.1331080172459536]}}]}